{
  "norad_id": 56048,
  "name": "ONEWEB-0546",
  "history": [
    {
      "epoch": "2026-03-28T22:08:50.866944Z",
      "apogee_km": 1198.6310715636773,
      "perigee_km": 1196.8664962468893,
      "latitude_deg": -2.5274292168183885e-05,
      "longitude_deg": 86.17775355716869,
      "height_km": 1200.533453381417,
      "semi_major_axis_km": 7575.885783905283,
      "eccentricity": 0.00011646,
      "inclination_deg": 87.9033,
      "raan_deg": 244.726,
      "arg_perigee_deg": 82.8163,
      "mean_anomaly_deg": 277.31,
      "mean_motion_rev_day": 13.16596312
    },
    {
      "epoch": "2026-03-29T03:37:09.232320Z",
      "apogee_km": 1198.6268155114722,
      "perigee_km": 1196.8692101884917,
      "latitude_deg": 2.361108135348559e-05,
      "longitude_deg": 3.831215450993734,
      "height_km": 1200.535012942958,
      "semi_major_axis_km": 7575.885012849982,
      "eccentricity": 0.000116,
      "inclination_deg": 87.9034,
      "raan_deg": 244.6807,
      "arg_perigee_deg": 82.9407,
      "mean_anomaly_deg": 277.1856,
      "mean_motion_rev_day": 13.16596513
    },
    {
      "epoch": "2026-03-30T03:19:48.895968Z",
      "apogee_km": 1198.5998185553617,
      "perigee_km": 1196.8967595423846,
      "latitude_deg": -3.9442873940458894e-07,
      "longitude_deg": 6.995473074021162,
      "height_km": 1200.5579774608693,
      "semi_major_axis_km": 7575.885289048873,
      "eccentricity": 0.0001124,
      "inclination_deg": 87.9035,
      "raan_deg": 244.484,
      "arg_perigee_deg": 84.2457,
      "mean_anomaly_deg": 275.8802,
      "mean_motion_rev_day": 13.16596441
    },
    {
      "epoch": "2026-03-30T10:37:33.390912Z",
      "apogee_km": 1198.5921112067645,
      "perigee_km": 1196.9034464895603,
      "latitude_deg": -5.407245591617659e-07,
      "longitude_deg": -102.80014564647934,
      "height_km": 1200.5638383863236,
      "semi_major_axis_km": 7575.884778848163,
      "eccentricity": 0.00011145,
      "inclination_deg": 87.9035,
      "raan_deg": 244.4234,
      "arg_perigee_deg": 84.6298,
      "mean_anomaly_deg": 275.496,
      "mean_motion_rev_day": 13.16596574
    },
    {
      "epoch": "2026-03-30T21:34:10.172640Z",
      "apogee_km": 1198.580241058251,
      "perigee_km": 1196.9155161150302,
      "latitude_deg": 6.66507667529126e-05,
      "longitude_deg": 92.50636447953154,
      "height_km": 1200.5749575405837,
      "semi_major_axis_km": 7575.88487858664,
      "eccentricity": 0.00010987,
      "inclination_deg": 87.9035,
      "raan_deg": 244.3326,
      "arg_perigee_deg": 85.3127,
      "mean_anomaly_deg": 274.813,
      "mean_motion_rev_day": 13.16596548
    },
    {
      "epoch": "2026-03-31T21:16:49.830240Z",
      "apogee_km": 1198.5639297891594,
      "perigee_km": 1196.9305691449736,
      "latitude_deg": 7.658693830697906e-05,
      "longitude_deg": 95.67044937754616,
      "height_km": 1200.6015487988354,
      "semi_major_axis_km": 7575.884249467066,
      "eccentricity": 0.0001078,
      "inclination_deg": 87.9037,
      "raan_deg": 244.1357,
      "arg_perigee_deg": 87.134,
      "mean_anomaly_deg": 272.9915,
      "mean_motion_rev_day": 13.16596712
    },
    {
      "epoch": "2026-04-01T15:31:11.087040Z",
      "apogee_km": 1198.5662524290547,
      "perigee_km": 1196.9283462435378,
      "latitude_deg": 2.862857427302909e-05,
      "longitude_deg": -178.81848030077046,
      "height_km": 1200.6252902936092,
      "semi_major_axis_km": 7575.884299336296,
      "eccentricity": 0.0001081,
      "inclination_deg": 87.904,
      "raan_deg": 243.9844,
      "arg_perigee_deg": 88.8001,
      "mean_anomaly_deg": 271.3254,
      "mean_motion_rev_day": 13.16596699
    }
  ]
}